NORAD_CAT_ID,OBJECT_NAME,OBJECT_TYPE,EPOCH,MEAN_MOTION,ECCENTRICITY,INCLINATION,RA_OF_ASC_NODE,ARG_OF_PERICENTER,MEAN_ANOMALY,BSTAR,MEAN_MOTION_DOT,MEAN_MOTION_DDOT,TLE_LINE0,TLE_LINE1,TLE_LINE2,SEMIMAJOR_AXIS,PERIOD,APOGEE,PERIGEE,DECAYED
53846.0,STARLINK-4746,PAYLOAD,2023-03-03 09:13:54,15.08850744,0.0001082,53.2154,202.3727,85.7632,274.3483,0.00036,5.448e-05,0.0,0 STARLINK-4746,1 53846U 22114AE  23062.38465309  .00005448  00000-0  36000-3 0  9990,2 53846  53.2154 202.3727 0001082  85.7632 274.3483 15.08850744 26026,6917.848,95.437,540.461,538.964,0.0
53846.0,STARLINK-4746,PAYLOAD,2023-03-03 18:46:12,15.0886508,0.0001285,53.2141,200.5895,65.5678,294.5448,0.00050847,7.819e-05,0.0,0 STARLINK-4746,1 53846U 22114AE  23062.78208421  .00007819  00000-0  50847-3 0  9993,2 53846  53.2141 200.5895 0001285  65.5678 294.5448 15.08865080 26089,6917.804,95.436,540.558,538.78,0.0
53846.0,STARLINK-4746,PAYLOAD,2023-03-04 09:04:40,15.08847794,0.0001587,53.2157,197.9129,93.5846,266.5328,3.1521e-05,2.14e-06,0.0,0 STARLINK-4746,1 53846U 22114AE  23063.37824621  .00000214  00000-0  31521-4 0  9996,2 53846  53.2157 197.9129 0001587  93.5846 266.5328 15.08847794 26176,6917.857,95.437,540.819,538.624,0.0
53846.0,STARLINK-4746,PAYLOAD,2023-03-04 18:36:58,15.08857907,0.0001155,53.2159,196.1266,99.3754,260.7369,0.0004293,6.554e-05,0.0,0 STARLINK-4746,1 53846U 22114AE  23063.77568128  .00006554  00000-0  42930-3 0  9995,2 53846  53.2159 196.1266 0001155  99.3754 260.7369 15.08857907 26778,6917.826,95.436,540.49,538.892,0.0
53846.0,STARLINK-4746,PAYLOAD,2023-03-06 02:24:42,15.08839384,0.000216,53.2162,190.1823,78.3778,281.7457,0.00030049,4.497e-05,0.0,0 STARLINK-4746,1 53846U 22114AE  23065.10049457  .00004497  00000-0  30049-3 0  9995,2 53846  53.2162 190.1823 0002160  78.3778 281.7457 15.08839384 26438,6917.882,95.438,541.242,538.253,0.0
53846.0,STARLINK-4746,PAYLOAD,2023-03-06 11:57:00,15.08846527,0.0001472,53.2162,188.3954,106.5291,253.5862,0.00023509,3.456e-05,0.0,0 STARLINK-4746,1 53846U 22114AE  23065.49791982  .00003456  00000-0  23509-3 0  9991,2 53846  53.2162 188.3954 0001472 106.5291 253.5862 15.08846527 26491,6917.86,95.437,540.744,538.707,0.0
53846.0,STARLINK-4746,PAYLOAD,2023-03-06 19:53:55,15.08873728,0.0001212,53.2168,186.9096,91.2014,268.9117,0.00152,0.00024008,0.0,0 STARLINK-4746,1 53846U 22114AE  23065.82911759  .00024008  00000-0  15200-2 0  9998,2 53846  53.2168 186.9096 0001212  91.2014 268.9117 15.08873728 27085,6917.777,95.435,540.481,538.804,0.0
53846.0,STARLINK-4746,PAYLOAD,2023-03-07 05:26:16,15.08824045,0.0001851,53.2179,185.1246,89.3087,270.8117,-0.00057755,-9.464e-05,0.0,0 STARLINK-4746,1 53846U 22114AE  23066.22657647 -.00009464  00000-0 -57755-3 0  9999,2 53846  53.2179 185.1246 0001851  89.3087 270.8117 15.08824045 26609,6917.929,95.439,541.075,538.514,0.0
53846.0,STARLINK-4746,PAYLOAD,2023-03-07 10:12:25,15.08851169,0.0001147,53.217,184.2349,103.56,256.552,0.0022899,0.00036355,0.0,0 STARLINK-4746,1 53846U 22114AE  23066.42529309  .00036355  00000-0  22899-2 0  9991,2 53846  53.2170 184.2349 0001147 103.5600 256.5520 15.08851169 26631,6917.846,95.437,540.505,538.918,0.0
53846.0,STARLINK-4746,PAYLOAD,2023-03-07 21:20:06,15.08879452,0.0001092,53.2168,182.1532,89.2859,270.8258,0.0029941,0.00047738,0.0,0 STARLINK-4746,1 53846U 22114AE  23066.88896788  .00047738  00000-0  29941-2 0  9991,2 53846  53.2168 182.1532 0001092  89.2859 270.8258 15.08879452 27244,6917.76,95.435,540.38,538.869,0.0
53846.0,STARLINK-4746,PAYLOAD,2023-03-08 00:30:53,15.08820609,0.0001212,53.2165,181.5587,85.4539,274.6591,0.00096443,0.00015086,0.0,0 STARLINK-4746,1 53846U 22114AE  23067.02145469  .00015086  00000-0  96443-3 0  9994,2 53846  53.2165 181.5587 0001212  85.4539 274.6591 15.08820609 26725,6917.94,95.439,540.643,538.966,0.0
53846.0,STARLINK-4746,PAYLOAD,2023-03-08 16:24:45,15.08873899,0.0001158,53.2161,178.5848,76.7771,283.335,0.0051713,0.00083061,0.0,0 STARLINK-4746,1 53846U 22114AE  23067.68385656  .00083061  00000-0  51713-2 0  9998,2 53846  53.2161 178.5848 0001158  76.7771 283.3350 15.08873899 26827,6917.777,95.435,540.443,538.841,0.0
53846.0,STARLINK-4746,PAYLOAD,2023-03-08 19:35:31,15.08890334,0.0001175,53.2161,177.9902,76.4259,283.6864,0.0046053,0.00073876,0.0,0 STARLINK-4746,1 53846U 22114AE  23067.81633307  .00073876  00000-0  46053-2 0  9996,2 53846  53.2161 177.9902 0001175  76.4259 283.6864 15.08890334 27386,6917.727,95.434,540.404,538.779,0.0
53846.0,STARLINK-4746,PAYLOAD,2023-03-08 22:46:18,15.08823918,0.0001962,53.2161,177.3957,57.8967,302.2216,0.0030641,0.00048794,0.0,0 STARLINK-4746,1 53846U 22114AE  23067.94882367  .00048794  00000-0  30641-2 0  9999,2 53846  53.2161 177.3957 0001962  57.8967 302.2216 15.08823918 26868,6917.93,95.439,541.152,538.437,0.0
53846.0,STARLINK-4746,PAYLOAD,2023-03-09 17:50:54,15.08912335,0.0001155,53.2157,173.8274,93.6336,266.4789,0.0047486,0.00076255,0.0,0 STARLINK-4746,1 53846U 22114AE  23068.74368888  .00076255  00000-0  47486-2 0  9993,2 53846  53.2157 173.8274 0001155  93.6336 266.4789 15.08912335 26989,6917.659,95.433,540.323,538.725,0.0
53846.0,STARLINK-4746,PAYLOAD,2023-03-09 21:01:42,15.08828471,0.0003522,53.216,173.2334,47.5468,312.5822,0.00058555,9.041e-05,0.0,0 STARLINK-4746,1 53846U 22114AE  23068.87618084  .00009041  00000-0  58555-3 0  9992,2 53846  53.2160 173.2334 0003522  47.5468 312.5822 15.08828471 27549,6917.916,95.438,542.217,537.344,0.0
53846.0,STARLINK-4746,PAYLOAD,2023-03-10 00:12:27,15.08835788,0.0001626,53.2157,172.6387,91.1275,268.9904,0.0018129,0.00028679,0.0,0 STARLINK-4746,1 53846U 22114AE  23069.00865391  .00028679  00000-0  18129-2 0  9993,2 53846  53.2157 172.6387 0001626  91.1275 268.9904 15.08835788 27027,6917.893,95.438,540.883,538.633,0.0
53846.0,STARLINK-4746,PAYLOAD,2023-03-10 19:17:04,15.08902296,0.0001742,53.2156,169.0699,89.2712,270.848,0.0033699,0.00053846,0.0,0 STARLINK-4746,1 53846U 22114AE  23069.80352306  .00053846  00000-0  33699-2 0  9991,2 53846  53.2156 169.0699 0001742  89.2712 270.8480 15.08902296 27148,6917.69,95.434,540.76,538.35,0.0
53846.0,STARLINK-4746,PAYLOAD,2023-03-10 20:52:28,15.0881342,0.0002553,53.2156,168.7728,71.5993,288.5276,-0.00079957,-0.00012982,0.0,0 STARLINK-4746,1 53846U 22114AE  23069.86977505 -.00012982  00000-0 -79957-3 0  9997,2 53846  53.2156 168.7728 0002553  71.5993 288.5276 15.08813420 27692,6917.962,95.439,541.593,538.06,0.0
53846.0,STARLINK-4746,PAYLOAD,2023-03-11 06:24:47,15.08806036,0.0001851,53.2155,166.9886,110.1857,249.9334,0.0041334,0.00066051,0.0,0 STARLINK-4746,1 53846U 22114AE  23070.26721935  .00066051  00000-0  41334-2 0  9998,2 53846  53.2155 166.9886 0001851 110.1857 249.9334 15.08806036 27214,6917.984,95.44,541.13,538.569,0.0
53846.0,STARLINK-4746,PAYLOAD,2023-03-11 12:46:20,15.08829209,0.0001738,53.2157,165.7989,109.3574,250.7607,0.0033061,0.00052707,0.0,0 STARLINK-4746,1 53846U 22114AE  23070.53218355  .00052707  00000-0  33061-2 0  9996,2 53846  53.2157 165.7989 0001738 109.3574 250.7607 15.08829209 27790,6917.913,95.438,540.981,538.576,0.0
53846.0,STARLINK-4746,PAYLOAD,2023-03-11 17:32:30,15.08850807,0.0001789,53.2158,164.9071,109.9485,250.17,0.0031898,0.0005086,0.0,0 STARLINK-4746,1 53846U 22114AE  23070.73090359  .00050860  00000-0  31898-2 0  9994,2 53846  53.2158 164.9071 0001789 109.9485 250.1700 15.08850807 27287,6917.847,95.437,540.95,538.475,0.0
53846.0,STARLINK-4746,PAYLOAD,2023-03-11 20:43:16,15.08831567,0.000181,53.2157,164.3126,100.6402,259.4794,0.0020187,0.00031979,0.0,0 STARLINK-4746,1 53846U 22114AE  23070.86338722  .00031979  00000-0  20187-2 0  9996,2 53846  53.2157 164.3126 0001810 100.6402 259.4794 15.08831567 27842,6917.906,95.438,541.023,538.519,0.0
53846.0,STARLINK-4746,PAYLOAD,2023-03-12 07:50:58,15.08846399,0.000167,53.2156,162.2314,97.6797,262.4385,0.0035849,0.0005724,0.0,0 STARLINK-4746,1 53846U 22114AE  23071.32707126  .00057240  00000-0  35849-2 0  9996,2 53846  53.2156 162.2314 0001670  97.6797 262.4385 15.08846399 27370,6917.861,95.437,540.881,538.571,0.0
53846.0,STARLINK-4746,PAYLOAD,2023-03-12 12:37:08,15.08869278,0.000166,53.2157,161.3385,100.3897,259.7283,0.0035835,0.00057253,0.0,0 STARLINK-4746,1 53846U 22114AE  23071.52578841  .00057253  00000-0  35835-2 0  9997,2 53846  53.2157 161.3385 0001660 100.3897 259.7283 15.08869278 27941,6917.791,95.436,540.804,538.508,0.0
53846.0,STARLINK-4746,PAYLOAD,2023-03-12 20:34:03,15.08842768,0.0001268,53.2157,159.852,105.3236,254.7896,1.2166e-05,-9.4e-07,0.0,0 STARLINK-4746,1 53846U 22114AE  23071.85698504 -.00000094  00000-0  12166-4 0  9998,2 53846  53.2157 159.8520 0001268 105.3236 254.7896 15.08842768 27456,6917.872,95.437,540.614,538.86,0.0
53846.0,STARLINK-4746,PAYLOAD,2023-03-13 12:27:54,15.08862499,0.0001193,53.2158,156.8781,88.8837,271.2292,0.0026384,0.00041978,0.0,0 STARLINK-4746,1 53846U 22114AE  23072.51938381  .00041978  00000-0  26384-2 0  9992,2 53846  53.2158 156.8781 0001193  88.8837 271.2292 15.08862499 27550,6917.812,95.436,540.502,538.851,0.0
53846.0,STARLINK-4746,PAYLOAD,2023-03-13 14:03:17,15.08867928,0.0001202,53.2157,156.5806,90.5345,269.5784,0.0025715,0.00040907,0.0,0 STARLINK-4746,1 53846U 22114AE  23072.58562259  .00040907  00000-0  25715-2 0  9994,2 53846  53.2157 156.5806 0001202  90.5345 269.5784 15.08867928 28109,6917.795,95.436,540.492,538.829,0.0
53846.0,STARLINK-4746,PAYLOAD,2023-03-13 17:14:03,15.08880812,0.0001221,53.2157,155.9858,90.727,269.3862,0.0026197,0.00041698,0.0,0 STARLINK-4746,1 53846U 22114AE  23072.71809954  .00041698  00000-0  26197-2 0  9998,2 53846  53.2157 155.9858 0001221  90.7270 269.3862 15.08880812 28123,6917.756,95.435,540.465,538.776,0.0
53846.0,STARLINK-4746,PAYLOAD,2023-03-14 05:57:09,15.08842743,0.0001187,53.2157,153.6068,77.1682,282.9443,0.00070548,0.00010958,0.0,0 STARLINK-4746,1 53846U 22114AE  23073.24802481  .00010958  00000-0  70548-3 0  9990,2 53846  53.2157 153.6068 0001187  77.1682 282.9443 15.08842743 27663,6917.872,95.437,540.558,538.916,0.0
